{"fetched_at":"2026-03-30T13:17:50Z","count":15418,"tles":[{"name":"STARLINK-30393","line1":"1 57866U 23144C   26087.73859338  .00009394  00000+0  35002-3 0  9992","line2":"2 57866  42.9984 177.3689 0001221 260.0150 100.0564 15.27619822140511","category":"Starlink"}]}